ZACUBE-1 (TSHEPISOSAT)  
1 39417U 13066B   26066.12901184  .00005523  00000+0  43751-3 0  9993
2 39417  97.8183  27.9406 0042137 228.5830 131.1769 15.00291692665421
WNISAT-1                
1 39423U 13066H   26066.43466521  .00002647  00000+0  48956-3 0  9991
2 39423  97.7038 222.9078 0163397 191.9803 167.7492 14.57863177651903
TRITON-1                
1 39427U 13066M   26066.57693426  .00004267  00000+0  51828-3 0  9998
2 39427  97.8295 338.7161 0089920 204.6179 155.0729 14.81183590659046
GOMX-1                  
1 39430U 13066Q   26066.50910466  .00002116  00000+0  32397-3 0  9992
2 39430  97.6567 273.3503 0130369  44.4616 316.6967 14.69087234654985
CUBEBUG-2 (LO-74)       
1 39440U 13066AA  26066.41886536  .00008261  00000+0  77492-3 0  9995
2 39440  97.8819  15.0884 0058989   6.6765 353.5227 14.92924451661808
NEE-02 KRYSAOR          
1 39441U 13066AB  26066.56018486  .00004558  00000+0  50473-3 0  9998
2 39441  97.8818   6.5803 0067882  43.9104 316.7478 14.86145234661106
FUNCUBE-1 (AO-73)       
1 39444U 13066AE  26066.38481859  .00013488  00000+0  86966-3 0  9997
2 39444  97.8193  35.8839 0037024 187.1122 172.9585 15.07859994664311
UWE-3                   
1 39446U 13066AG  26066.38896579  .00008062  00000+0  70424-3 0  9992
2 39446  97.8593  21.9121 0048642 300.1835  59.4572 14.96147910662355
BRITE-CA1 (TORONTO)     
1 40020U 14033L   26066.31857132  .00001989  00000+0  30711-3 0  9998
2 40020  97.9561 197.2354 0077800 242.6001 116.7276 14.72456016627228
DUCHIFAT-1              
1 40021U 14033M   26066.56898411  .00076511  00000+0  13790-2 0  9991
2 40021  98.0631 112.7467 0006387  90.3519 269.8462 15.49495114639946
NANOSATC-BR1            
1 40024U 14033Q   26066.62529315  .00025626  00000+0  93800-3 0  9997
2 40024  98.0843  90.2239 0004484 154.6166 205.5293 15.28023225638450
QB50P1                  
1 40025U 14033R   26066.53257418  .00014036  00000+0  72370-3 0  9992
2 40025  98.1011  70.6697 0008058 201.8424 158.2465 15.16462692637616
QB50P2                  
1 40032U 14033Y   26066.61403729  .00012180  00000+0  68093-3 0  9992
2 40032  98.0735  57.3036 0008483 148.2967 211.8775 15.13621313637291
PERSEUS-M2              
1 40037U 14033AD  26066.61925019  .00002773  00000+0  25798-3 0  9990
2 40037  97.9877  15.1849 0010164 279.7324  80.2747 14.95149502635605
PERSEUS-M1              
1 40039U 14033AF  26066.59953310  .00003307  00000+0  30578-3 0  9990
2 40039  97.9560   9.1518 0009926 276.5250  83.4840 14.95243255635451
POLYITAN-1              
1 40042U 14033AJ  26066.58080905  .00029223  00000+0  10226-2 0  9996
2 40042  98.1050  83.4768 0009264 133.9045 226.2960 15.29439289638047
